*******************************************************************************
Ephemeris / WWW_USER Mon Jul 15 19:06:02 2024 Pasadena, USA      / Horizons    
*******************************************************************************
Target body name: (2018 RD5)                      {source: JPL#11}
Center body name: Earth (399)                     {source: DE441}
Center-site name: Gemini South Obs., Cerro Pachon
*******************************************************************************
Start time      : A.D. 2018-Oct-27 23:10:00.0000 UT      
Stop  time      : A.D. 2018-Oct-28 09:43:00.0000 UT      
Step-size       : 1 minutes
*******************************************************************************
Target pole/equ : undefined
Target radii    : undefined                                                    
Center geodetic : 289.2634, -30.2406227, 2.71233  {E-lon(deg),Lat(deg),Alt(km)}
Center cylindric: 289.2634,5517.21435,-3194.81213 {E-lon(deg),Dxy(km),Dz(km)}
Center pole/equ : ITRF93                          {East-longitude positive}
Center radii    : 6378.137, 6378.137, 6356.752 km {Equator_a, b, pole_c}       
Target primary  : Sun
Vis. interferer : MOON (R_eq= 1737.400) km        {source: DE441}
Rel. light bend : Sun                             {source: DE441}
Rel. lght bnd GM: 1.3271E+11 km^3/s^2                                          
Small-body perts: Yes                             {source: SB441-N16}
Atmos refraction: NO (AIRLESS)
RA format       : HMS
Time format     : CAL 
Calendar mode   : Mixed Julian/Gregorian
RTS-only print  : NO       
EOP file        : eop.240715.p241008                                           
EOP coverage    : DATA-BASED 1962-JAN-20 TO 2024-JUL-15. PREDICTS-> 2024-OCT-07
Units conversion: 1 au= 149597870.700 km, c= 299792.458 km/s, 1 day= 86400.0 s 
Table cut-offs 1: Elevation (-90.0deg=NO ),Airmass (>38.000=NO), Daylight (YES)
Table cut-offs 2: Solar elongation (  0.0,180.0=NO ),Local Hour Angle( 0.0=NO )
Table cut-offs 3: RA/DEC angular rate (     0.0=NO )                           
*******************************************************************************
Initial IAU76/J2000 heliocentric ecliptic osculating elements (au, days, deg.):
  EPOCH=  2458378.5 ! 2018-Sep-17.00 (TDB)         Residual RMS= .55339        
   EC= .2891632988519429   QR= 1.009650912138325   TP= 2458360.6433297051      
   OM= 171.0145363394364   W=  163.7983400129293   IN= 8.474307805886117       
  Equivalent ICRF heliocentric cartesian coordinates (au, au/d):
   X= 1.017757009008053E+00  Y=-8.967367621791844E-02  Z=-4.840656937149759E-02
  VX= 3.309922676318766E-03 VY= 1.832358809606965E-02 VZ= 4.854018792897502E-03
Asteroid physical parameters (km, seconds, rotational period in hours):        
   GM= n.a.                RAD= n.a.               ROTPER= n.a.                
   H= 25.9                 G= .150                 B-V= n.a.                   
                           ALBEDO= n.a.            STYP= n.a.                  
*******************************************************************************
 Date__(UT)__HR:MN     R.A._________(ICRF)_________DEC
******************************************************
$$SOE
 2018-Oct-28 07:22  m  03 04 08.793667 -24 45 47.48948
 2018-Oct-28 07:23  m  03 04 08.757766 -24 45 46.91876
 2018-Oct-28 07:24  m  03 04 08.721894 -24 45 46.34774
 2018-Oct-28 07:25  m  03 04 08.686054 -24 45 45.77641
 2018-Oct-28 07:26  m  03 04 08.650244 -24 45 45.20477
 2018-Oct-28 07:27  m  03 04 08.614466 -24 45 44.63283
 2018-Oct-28 07:28  m  03 04 08.578718 -24 45 44.06059
 2018-Oct-28 07:29  m  03 04 08.543002 -24 45 43.48805
 2018-Oct-28 07:30  m  03 04 08.507318 -24 45 42.91521
 2018-Oct-28 07:31  m  03 04 08.471666 -24 45 42.34206
 2018-Oct-28 07:32  m  03 04 08.436045 -24 45 41.76862
 2018-Oct-28 07:33  m  03 04 08.400457 -24 45 41.19487
 2018-Oct-28 07:34  m  03 04 08.364902 -24 45 40.62083
 2018-Oct-28 07:35  m  03 04 08.329380 -24 45 40.04650
 2018-Oct-28 07:36  m  03 04 08.293890 -24 45 39.47186
 2018-Oct-28 07:37  m  03 04 08.258434 -24 45 38.89693
 2018-Oct-28 07:38  m  03 04 08.223011 -24 45 38.32171
 2018-Oct-28 07:39  m  03 04 08.187622 -24 45 37.74619
 2018-Oct-28 07:40  m  03 04 08.152266 -24 45 37.17038
 2018-Oct-28 07:41  m  03 04 08.116945 -24 45 36.59428
 2018-Oct-28 07:42  m  03 04 08.081658 -24 45 36.01788
 2018-Oct-28 07:43  m  03 04 08.046406 -24 45 35.44120
 2018-Oct-28 07:44  m  03 04 08.011188 -24 45 34.86423
 2018-Oct-28 07:45  m  03 04 07.976005 -24 45 34.28696
 2018-Oct-28 07:46  m  03 04 07.940857 -24 45 33.70941
 2018-Oct-28 07:47  m  03 04 07.905745 -24 45 33.13158
 2018-Oct-28 07:48  m  03 04 07.870668 -24 45 32.55346
 2018-Oct-28 07:49  m  03 04 07.835627 -24 45 31.97505
 2018-Oct-28 07:50  m  03 04 07.800622 -24 45 31.39636
 2018-Oct-28 07:51  m  03 04 07.765653 -24 45 30.81738
 2018-Oct-28 07:52  m  03 04 07.730720 -24 45 30.23812
 2018-Oct-28 07:53  m  03 04 07.695824 -24 45 29.65859
 2018-Oct-28 07:54  m  03 04 07.660965 -24 45 29.07877
 2018-Oct-28 07:55  m  03 04 07.626143 -24 45 28.49867
 2018-Oct-28 07:56  m  03 04 07.591357 -24 45 27.91829
 2018-Oct-28 07:57  m  03 04 07.556610 -24 45 27.33764
 2018-Oct-28 07:58  m  03 04 07.521900 -24 45 26.75671
 2018-Oct-28 07:59  m  03 04 07.487227 -24 45 26.17550
 2018-Oct-28 08:00  m  03 04 07.452593 -24 45 25.59402
 2018-Oct-28 08:01  m  03 04 07.417997 -24 45 25.01226
 2018-Oct-28 08:02  m  03 04 07.383439 -24 45 24.43023
 2018-Oct-28 08:03  m  03 04 07.348920 -24 45 23.84793
 2018-Oct-28 08:04  m  03 04 07.314439 -24 45 23.26536
 2018-Oct-28 08:05  m  03 04 07.279998 -24 45 22.68252
 2018-Oct-28 08:06  m  03 04 07.245596 -24 45 22.09941
 2018-Oct-28 08:07  m  03 04 07.211233 -24 45 21.51603
 2018-Oct-28 08:08  m  03 04 07.176909 -24 45 20.93238
 2018-Oct-28 08:09  m  03 04 07.142626 -24 45 20.34847
 2018-Oct-28 08:10  m  03 04 07.108382 -24 45 19.76430
 2018-Oct-28 08:11  m  03 04 07.074179 -24 45 19.17985
 2018-Oct-28 08:12  m  03 04 07.040015 -24 45 18.59515
 2018-Oct-28 08:13  m  03 04 07.005893 -24 45 18.01019
 2018-Oct-28 08:14  m  03 04 06.971811 -24 45 17.42496
 2018-Oct-28 08:15  m  03 04 06.937770 -24 45 16.83947
 2018-Oct-28 08:16  m  03 04 06.903769 -24 45 16.25373
 2018-Oct-28 08:17  m  03 04 06.869811 -24 45 15.66772
 2018-Oct-28 08:18  m  03 04 06.835893 -24 45 15.08146
 2018-Oct-28 08:19  m  03 04 06.802018 -24 45 14.49495
 2018-Oct-28 08:20  m  03 04 06.768184 -24 45 13.90818
 2018-Oct-28 08:21  m  03 04 06.734392 -24 45 13.32115
 2018-Oct-28 08:22  m  03 04 06.700642 -24 45 12.73388
 2018-Oct-28 08:23  m  03 04 06.666935 -24 45 12.14635
 2018-Oct-28 08:24  m  03 04 06.633270 -24 45 11.55857
 2018-Oct-28 08:25  m  03 04 06.599648 -24 45 10.97054
 2018-Oct-28 08:26 Am  03 04 06.566069 -24 45 10.38226
 2018-Oct-28 08:27 Am  03 04 06.532533 -24 45 09.79374
 2018-Oct-28 08:28 Am  03 04 06.499040 -24 45 09.20497
 2018-Oct-28 08:29 Am  03 04 06.465591 -24 45 08.61595
 2018-Oct-28 08:30 Am  03 04 06.432185 -24 45 08.02669
 2018-Oct-28 08:31 Am  03 04 06.398823 -24 45 07.43719
 2018-Oct-28 08:32 Am  03 04 06.365505 -24 45 06.84744
 2018-Oct-28 08:33 Am  03 04 06.332231 -24 45 06.25746
 2018-Oct-28 08:34 Am  03 04 06.299002 -24 45 05.66723
 2018-Oct-28 08:35 Am  03 04 06.265817 -24 45 05.07677
 2018-Oct-28 08:36 Am  03 04 06.232676 -24 45 04.48607
 2018-Oct-28 08:37 Am  03 04 06.199581 -24 45 03.89513
 2018-Oct-28 08:38 Am  03 04 06.166530 -24 45 03.30396
 2018-Oct-28 08:39 Am  03 04 06.133525 -24 45 02.71256
 2018-Oct-28 08:40 Am  03 04 06.100565 -24 45 02.12092
 2018-Oct-28 08:41 Am  03 04 06.067650 -24 45 01.52905
 2018-Oct-28 08:42 Am  03 04 06.034781 -24 45 00.93694
 2018-Oct-28 08:43 Am  03 04 06.001958 -24 45 00.34461
 2018-Oct-28 08:44 Am  03 04 05.969181 -24 44 59.75205
 2018-Oct-28 08:45 Am  03 04 05.936450 -24 44 59.15927
 2018-Oct-28 08:46 Am  03 04 05.903765 -24 44 58.56626
 2018-Oct-28 08:47 Am  03 04 05.871127 -24 44 57.97302
 2018-Oct-28 08:48 Am  03 04 05.838535 -24 44 57.37956
 2018-Oct-28 08:49 Am  03 04 05.805991 -24 44 56.78587
 2018-Oct-28 08:50 Am  03 04 05.773493 -24 44 56.19197
 2018-Oct-28 08:51 Am  03 04 05.741042 -24 44 55.59784
 2018-Oct-28 08:52 Am  03 04 05.708639 -24 44 55.00350
 2018-Oct-28 08:53 Am  03 04 05.676283 -24 44 54.40894
 2018-Oct-28 08:54 Am  03 04 05.643974 -24 44 53.81416
 2018-Oct-28 08:55 Am  03 04 05.611713 -24 44 53.21917
 2018-Oct-28 08:56 Am  03 04 05.579500 -24 44 52.62396
 2018-Oct-28 08:57 Nm  03 04 05.547336 -24 44 52.02854
 2018-Oct-28 08:58 Nm  03 04 05.515219 -24 44 51.43291
 2018-Oct-28 08:59 Nm  03 04 05.483151 -24 44 50.83706
 2018-Oct-28 09:00 Nm  03 04 05.451131 -24 44 50.24101
 2018-Oct-28 09:01 Nm  03 04 05.419160 -24 44 49.64475
 2018-Oct-28 09:02 Nm  03 04 05.387237 -24 44 49.04828
 2018-Oct-28 09:03 Nm  03 04 05.355364 -24 44 48.45161
 2018-Oct-28 09:04 Nm  03 04 05.323539 -24 44 47.85473
 2018-Oct-28 09:05 Nm  03 04 05.291764 -24 44 47.25765
 2018-Oct-28 09:06 Nm  03 04 05.260038 -24 44 46.66037
 2018-Oct-28 09:07 Nm  03 04 05.228362 -24 44 46.06289
 2018-Oct-28 09:08 Nm  03 04 05.196735 -24 44 45.46520
 2018-Oct-28 09:09 Nm  03 04 05.165158 -24 44 44.86732
 2018-Oct-28 09:10 Nm  03 04 05.133631 -24 44 44.26924
 2018-Oct-28 09:11 Nm  03 04 05.102154 -24 44 43.67097
 2018-Oct-28 09:12 Nm  03 04 05.070728 -24 44 43.07250
 2018-Oct-28 09:13 Nm  03 04 05.039351 -24 44 42.47384
 2018-Oct-28 09:14 Nm  03 04 05.008025 -24 44 41.87498
 2018-Oct-28 09:15 Nm  03 04 04.976750 -24 44 41.27594
 2018-Oct-28 09:16 Nm  03 04 04.945525 -24 44 40.67670
 2018-Oct-28 09:17 Nm  03 04 04.914352 -24 44 40.07728
 2018-Oct-28 09:18 Nm  03 04 04.883229 -24 44 39.47767
 2018-Oct-28 09:19 Nm  03 04 04.852157 -24 44 38.87788
 2018-Oct-28 09:20 Nm  03 04 04.821137 -24 44 38.27790
 2018-Oct-28 09:21 Nm  03 04 04.790168 -24 44 37.67773
 2018-Oct-28 09:22 Nm  03 04 04.759251 -24 44 37.07739
 2018-Oct-28 09:23 Nm  03 04 04.728385 -24 44 36.47687
 2018-Oct-28 09:24 Nm  03 04 04.697571 -24 44 35.87616
